H1 CPF 01  gfz 2022 06 20 00  6711 terrasarx 
H2 0702601  6201 31698    2022 06 20 00 59 42 2022 06 25 00 00 42   120 1 1  0 0 0
H9
10 0 59751  82782.000000  0     623640.820   1072867.798  -6782362.686
10 0 59751  82902.000000  0     874214.754    191231.474  -6836671.504
10 0 59751  83022.000000  0    1094158.676   -697832.197  -6771755.564
10 0 59751  83142.000000  0    1279671.400  -1578358.676  -6588732.211
10 0 59751  83262.000000  0    1427819.923  -2434461.504  -6290749.911
10 0 59751  83382.000000  0    1536585.774  -3250611.914  -5882941.399
10 0 59751  83502.000000  0    1604891.746  -4011918.377  -5372345.932
10 0 59751  83622.000000  0    1632608.542  -4704399.403  -4767797.407
10 0 59751  83742.000000  0    1620542.182  -5315242.450  -4079782.247
10 0 59751  83862.000000  0    1570401.128  -5833048.564  -3320268.664
10 0 59751  83982.000000  0    1484742.855  -6248055.444  -2502505.882
10 0 59751  84102.000000  0    1366902.399  -6552332.887  -1640797.103
10 0 59751  84222.000000  0    1220903.664  -6739946.044   -750249.759
10 0 59751  84342.000000  0    1051353.881  -6807081.954    153492.812
10 0 59751  84462.000000  0     863326.096  -6752134.063   1054532.477
10 0 59751  84582.000000  0     662230.766  -6575743.730   1937003.986
10 0 59751  84702.000000  0     453681.006  -6280796.225   2785364.479
10 0 59751  84822.000000  0     243353.759  -5872369.405   3584676.522
10 0 59751  84942.000000  0      36850.355  -5357638.443   4320876.269
10 0 59751  85062.000000  0    -160438.718  -4745741.518   4981023.781
10 0 59751  85182.000000  0    -343462.000  -4047607.392   5553531.012
10 0 59751  85302.000000  0    -507624.808  -3275750.546   6028363.368
10 0 59751  85422.000000  0    -648894.669  -2444036.808   6397210.900
10 0 59751  85542.000000  0    -763892.139  -1567428.275   6653625.620
10 0 59751  85662.000000  0    -849965.372   -661712.194   6793128.412
10 0 59751  85782.000000  0    -905247.672    256784.766   6813283.721
10 0 59751  85902.000000  0    -928696.487   1171491.088   6713739.460
10 0 59751  86022.000000  0    -920112.474   2065888.875   6496232.610
10 0 59751  86142.000000  0    -880139.250   2923811.535   6164560.764
10 0 59751  86262.000000  0    -810244.198   3729736.569   5724520.210
10 0 59751  86382.000000  0    -712680.154   4469069.148   5183809.811
10 0 59752    102.000000  0    -590428.601   5128411.054   4551902.890
10 0 59752    222.000000  0    -447125.748   5695812.196   3839886.159
10 0 59752    342.000000  0    -286971.850   6160994.163   3060268.463
10 0 59752    462.000000  0    -114628.242   6515549.004   2226764.915
10 0 59752    582.000000  0      64899.063   6753102.788   1354049.903
10 0 59752    702.000000  0     246385.738   6869436.198    457493.240
10 0 59752    822.000000  0     424520.923   6862564.503   -447117.512
10 0 59752    942.000000  0     594042.129   6732772.362  -1343864.453
10 0 59752   1062.000000  0     749867.690   6482601.444  -2216988.185
10 0 59752   1182.000000  0     887224.341   6116793.925  -3051171.299
10 0 59752   1302.000000  0    1001767.957   5642193.177  -3831811.352
10 0 59752   1422.000000  0    1089694.005   5067604.202  -4545277.888
10 0 59752   1542.000000  0    1147835.031   4403617.687  -5179147.948
10 0 59752   1662.000000  0    1173743.050   3662403.264  -5722415.636
10 0 59752   1782.000000  0    1165754.772   2857477.807  -6165674.392
10 0 59752   1902.000000  0    1123039.014   2003452.353  -6501268.854
10 0 59752   2022.000000  0    1045625.495   1115765.516  -6723414.825
10 0 59752   2142.000000  0     934414.841    210406.747  -6828289.869
10 0 59752   2262.000000  0     791169.909   -696367.421  -6814091.880
10 0 59752   2382.000000  0     618487.885  -1588319.151  -6681065.356
10 0 59752   2502.000000  0     419754.578  -2449511.514  -6431496.520
10 0 59752   2622.000000  0     199081.138  -3264586.213  -6069680.533
10 0 59752   2742.000000  0     -38777.178  -4019035.352  -5601855.771
10 0 59752   2862.000000  0    -288517.076  -4699458.869  -5036105.905
10 0 59752   2982.000000  0    -544397.939  -5293806.044  -4382232.071
10 0 59752   3102.000000  0    -800365.718  -5791596.583  -3651594.004
10 0 59752   3222.000000  0   -1050187.168  -6184115.757  -2856921.289
10 0 59752   3342.000000  0   -1287591.668  -6464578.887  -2012097.709
10 0 59752   3462.000000  0   -1506417.693  -6628261.954  -1131920.916
10 0 59752   3582.000000  0   -1700759.942  -6672592.837   -231840.841
10 0 59752   3702.000000  0   -1865113.690  -6597200.070    672316.986
10 0 59752   3822.000000  0   -1994512.953  -6403917.653   1564637.358
10 0 59752   3942.000000  0   -2084658.423  -6096745.240   2429404.614
10 0 59752   4062.000000  0   -2132031.491  -5681764.184   3251388.593
10 0 59752   4182.000000  0   -2133991.184  -5167011.640   4016120.074
10 0 59752   4302.000000  0   -2088851.907  -4562317.183   4710149.751
10 0 59752   4422.000000  0   -1995940.776  -3879106.922   5321286.212
10 0 59752   4542.000000  0   -1855633.462  -3130178.314   5838809.996
10 0 59752   4662.000000  0   -1669366.222  -2329451.289   6253657.322
10 0 59752   4782.000000  0   -1439624.922  -1491704.227   6558572.530
10 0 59752   4902.000000  0   -1169912.655   -632297.715   6748229.491
10 0 59752   5022.000000  0    -864696.697    233109.440   6819318.127
10 0 59752   5142.000000  0    -529334.841   1088844.488   6770598.424
10 0 59752   5262.000000  0    -169981.195   1919504.151   6602921.365
10 0 59752   5382.000000  0     206526.640   2710231.648   6319214.871
10 0 59752   5502.000000  0     592796.772   3446982.291   5924435.581
10 0 59752   5622.000000  0     981026.285   4116775.082   5425487.739
10 0 59752   5742.000000  0    1363156.896   4707925.701   4831108.315
10 0 59752   5862.000000  0    1731040.281   5210257.101   4151719.538
10 0 59752   5982.000000  0    2076609.709   5615281.674   3399251.013
10 0 59752   6102.000000  0    2392055.707   5916354.637   2586934.090
10 0 59752   6222.000000  0    2669998.900   6108792.905   1729066.363
10 0 59752   6342.000000  0    2903658.492   6189953.411    840754.697
10 0 59752   6462.000000  0    3087008.976   6159269.859    -62357.960
10 0 59752   6582.000000  0    3214923.486   6018248.512   -964375.699
10 0 59752   6702.000000  0    3283299.953   5770421.826  -1849437.826
10 0 59752   6822.000000  0    3289166.246   5421262.239  -2702005.090
10 0 59752   6942.000000  0    3230762.186   4978057.508  -3507138.949
10 0 59752   7062.000000  0    3107595.253   4449750.539  -4250766.274
10 0 59752   7182.000000  0    2920470.053   3846750.551  -4919923.689
10 0 59752   7302.000000  0    2671491.045   3180720.108  -5502978.862
10 0 59752   7422.000000  0    2364040.115   2464342.787  -5989824.734
10 0 59752   7542.000000  0    2002728.519   1711077.025  -6372044.456
10 0 59752   7662.000000  0    1593325.351    934901.898  -6643044.740
10 0 59752   7782.000000  0    1142665.256    150060.042  -6798158.668
10 0 59752   7902.000000  0     658534.321   -629199.308  -6834718.683
10 0 59752   8022.000000  0     149536.720  -1388873.905  -6752096.213
10 0 59752   8142.000000  0    -375054.135  -2115452.779  -6551710.130
10 0 59752   8262.000000  0    -905459.866  -2796150.412  -6237006.627
10 0 59752   8382.000000  0   -1431575.142  -3419129.236  -5813406.435
10 0 59752   8502.000000  0   -1943155.248  -3973704.136  -5288220.586
10 0 59752   8622.000000  0   -2430012.089  -4450528.495  -4670536.618
10 0 59752   8742.000000  0   -2882215.950  -4841758.341  -3971072.638
10 0 59752   8862.000000  0   -3290297.766  -5141188.971  -3202000.441
10 0 59752   8982.000000  0   -3645447.739  -5344362.102  -2376741.128
10 0 59752   9102.000000  0   -3939706.762  -5448640.803  -1509734.911
10 0 59752   9222.000000  0   -4166145.220  -5453249.294   -616188.191
10 0 59752   9342.000000  0   -4319023.886  -5359275.899    288197.311
10 0 59752   9462.000000  0   -4393932.718  -5169638.376   1187507.500
10 0 59752   9582.000000  0   -4387903.833  -4889011.627   2065905.309
10 0 59752   9702.000000  0   -4299494.692  -4523718.974   2907918.883
10 0 59752   9822.000000  0   -4128840.270  -4081591.108   3698721.656
10 0 59752   9942.000000  0   -3877673.121  -3571796.392   4424399.548
10 0 59752  10062.000000  0   -3549309.959  -3004645.754   5072199.144
10 0 59752  10182.000000  0   -3148606.528  -2391378.674   5630750.591
10 0 59752  10302.000000  0   -2681882.458  -1743936.682   6090263.971
10 0 59752  10422.000000  0   -2156817.613  -1074727.691   6442697.191
10 0 59752  10542.000000  0   -1582321.170   -396384.419   6681892.143
10 0 59752  10662.000000  0    -968375.953    278475.531   6803674.200
10 0 59752  10782.000000  0    -325864.724    937482.543   6805919.601
10 0 59752  10902.000000  0     333622.374   1568741.105   6688590.757
10 0 59752  11022.000000  0     997996.479   2161044.468   6453737.034
10 0 59752  11142.000000  0    1654891.014   2704073.465   6105460.359
10 0 59752  11262.000000  0    2291890.868   3188576.768   5649848.350
10 0 59752  11382.000000  0    2896767.582   3606531.694   5094874.916
10 0 59752  11502.000000  0    3457717.117   3951281.653   4450266.122
10 0 59752  11622.000000  0    3963592.237   4217645.362   3727333.873
10 0 59752  11742.000000  0    4404128.356   4402000.383   2938783.342
10 0 59752  11862.000000  0    4770158.823   4502334.382   2098487.611
10 0 59752  11982.000000  0    5053807.665   4518263.911   1221241.166
10 0 59752  12102.000000  0    5248662.200   4451020.244    322494.076
10 0 59752  12222.000000  0    5349916.351   4303401.399   -581929.293
10 0 59752  12342.000000  0    5354480.596   4079691.827  -1476117.877
10 0 59752  12462.000000  0    5261058.212   3785552.482  -2344361.756
10 0 59752  12582.000000  0    5070185.307   3427883.503  -3171434.485
10 0 59752  12702.000000  0    4784233.851   3014664.854  -3942863.637
10 0 59752  12822.000000  0    4407378.262   2554778.758  -4645185.308
99
